ORBCOMM FM06            
1 25118U 97084G   26159.53661762  .00001411  00000+0  41910-3 0  9998
2 25118  45.0137  94.3553 0001891 304.6268 226.3117 14.47541796493136
ORBCOMM FM04            
1 25159U 98007C   26159.47615742  .00000937  00000+0  36622-3 0  9995
2 25159 107.9626 151.4910 0041054 339.7792  20.1721 14.35725483475348
ORBCOMM FM19            
1 25415U 98046C   26158.63385465  .00001050  00000+0  37919-3 0  9993
2 25415  44.9943 288.9711 0004248 243.4564 130.6337 14.39481576455403
ORBCOMM FM20            
1 25416U 98046D   26158.07864949  .00000707  00000+0  27803-3 0  9990
2 25416  44.9949 299.4212 0001612 215.8377 144.2363 14.38052845455334
ORBCOMM FM27            
1 25481U 98053G   26158.88539829  .00001050  00000+0  38187-3 0  9994
2 25481  45.0065  19.5330 0000194  92.3800 267.7071 14.39124563448890
ORBCOMM FM32            
1 25982U 99065C   26158.83624317  .00000620  00000+0  25418-3 0  9991
2 25982  45.0143 217.5021 0005127 347.4270  12.6449 14.37120115385743
ORBCOMM FM109           
1 40086U 14040A   26159.19489674  .00000627  00000+0  16900-3 0  9991
2 40086  47.0018 134.0012 0001630 219.4721 140.6047 14.58835788633031
ORBCOMM FM114           
1 41179U 15081A   26159.41765644  .00000490  00000+0  13985-3 0  9998
2 41179  47.0058  43.4650 0001977 170.6189 189.4734 14.58848434556478
ORBCOMM FM110           
1 41182U 15081D   26159.40617105  .00000743  00000+0  19351-3 0  9993
2 41182  47.0028  42.9609 0002852  26.3800 333.7231 14.58866539556345
ORBCOMM FM118           
1 41183U 15081E   26156.97489096  .00003194  00000+0  71149-3 0  9995
2 41183  47.0105  54.7867 0003166 344.4390  15.6398 14.58872006556094
ORBCOMM FM112           
1 41184U 15081F   26158.69180097  .00000819  00000+0  20932-3 0  9991
2 41184  47.0001 315.1475 0003123 175.6095 184.4819 14.58890878557561
ORBCOMM FM113           
1 41185U 15081G   26159.14754797  .00000505  00000+0  14299-3 0  9998
2 41185  47.0018 313.3644 0001738 188.1874 171.8983 14.58849184557614
ORBCOMM FM108           
1 41187U 15081J   26159.45245001  .00000548  00000+0  15217-3 0  9995
2 41187  47.0040 223.4955 0002510 184.4862 175.6002 14.58862136558800
ORBCOMM FM117           
1 41188U 15081K   26158.87004529  .00000590  00000+0  16110-3 0  9999
2 41188  47.0005 224.8856 0002980 184.7848 175.3010 14.58857943558766
ORBCOMM FM116           
1 41189U 15081L   26158.71361229  .00000857  00000+0  21737-3 0  9993
2 41189  47.0035 315.4145 0001121   3.5235 356.5659 14.58869594557555
